[{"OBJECT_NAME":"CHECKMATE 8","OBJECT_ID":"2023-050A","EPOCH":"2026-03-09T17:58:24.939264","MEAN_MOTION":13.84940059,"ECCENTRICITY":0.00059939,"INCLINATION":81.0051,"RA_OF_ASC_NODE":167.1365,"ARG_OF_PERICENTER":221.2042,"MEAN_ANOMALY":138.8662,"EPHEMERIS_TYPE":0,"CLASSIFICATION_TYPE":"U","NORAD_CAT_ID":56162,"ELEMENT_SET_NO":999,"REV_AT_EPOCH":14838,"BSTAR":0.00011917594,"MEAN_MOTION_DOT":1.46e-6,"MEAN_MOTION_DDOT":0},{"OBJECT_NAME":"THOR ABLESTAR DEB","OBJECT_ID":"1961-015GV","EPOCH":"2026-03-09T16:23:27.864096","MEAN_MOTION":13.61203723,"ECCENTRICITY":0.01377059,"INCLINATION":67.0991,"RA_OF_ASC_NODE":164.5802,"ARG_OF_PERICENTER":188.6553,"MEAN_ANOMALY":294.0398,"EPHEMERIS_TYPE":0,"CLASSIFICATION_TYPE":"U","NORAD_CAT_ID":644,"ELEMENT_SET_NO":999,"REV_AT_EPOCH":18419,"BSTAR":0.0008062098,"MEAN_MOTION_DOT":5.85e-6,"MEAN_MOTION_DDOT":0}]
